[
    {
        "Altitude(m)": 708225.1501086073,
        "Argument of Periapsis(deg)": 0.0034170363559881197,
        "Eccentricity": 0.0,
        "Inclination(deg)": 45.0,
        "Latitude(deg)": -20.378568643666945,
        "Longitude(deg)": 3.106096844280248,
        "Mean Anomaly(deg)": -29.267335005755807,
        "RAAN(deg)": 124.99677441756256,
        "Satellite Name": "Constellation 1 570",
        "Satellite Number": 570,
        "Semi-Major Axis(m)": 7083131.272910544,
        "Time(s)": 57
    },
    {
        "Altitude(m)": 708211.9643006395,
        "Argument of Periapsis(deg)": 0.003476984362233526,
        "Eccentricity": 0.0,
        "Inclination(deg)": 45.0,
        "Latitude(deg)": -20.338494045796555,
        "Longitude(deg)": 3.1506549365222125,
        "Mean Anomaly(deg)": -29.206633865505882,
        "RAAN(deg)": 124.99671782839697,
        "Satellite Name": "Constellation 1 570",
        "Satellite Number": 570,
        "Semi-Major Axis(m)": 7083131.272910544,
        "Time(s)": 58
    },
    {
        "Altitude(m)": 708198.7862816637,
        "Argument of Periapsis(deg)": 0.003536932368478932,
        "Eccentricity": 0.0,
        "Inclination(deg)": 45.0,
        "Latitude(deg)": -20.298405629378387,
        "Longitude(deg)": 3.19518790708785,
        "Mean Anomaly(deg)": -29.145932725255932,
        "RAAN(deg)": 124.99666123923141,
        "Satellite Name": "Constellation 1 570",
        "Satellite Number": 570,
        "Semi-Major Axis(m)": 7083131.272910544,
        "Time(s)": 59
    },
    {
        "Altitude(m)": 708185.6160945819,
        "Argument of Periapsis(deg)": 0.003596880374724337,
        "Eccentricity": 0.0,
        "Inclination(deg)": 45.0,
        "Latitude(deg)": -20.258303430430146,
        "Longitude(deg)": 3.239696150188365,
        "Mean Anomaly(deg)": -29.085231585006095,
        "RAAN(deg)": 124.99660465006582,
        "Satellite Name": "Constellation 1 570",
        "Satellite Number": 570,
        "Semi-Major Axis(m)": 7083131.272910544,
        "Time(s)": 60
    },
    {
        "Altitude(m)": 708172.453782249,
        "Argument of Periapsis(deg)": 0.0036568283809697427,
        "Eccentricity": 0.0,
        "Inclination(deg)": 45.0,
        "Latitude(deg)": -20.218187484921582,
        "Longitude(deg)": 3.284179555717504,
        "Mean Anomaly(deg)": -29.02453044475615,
        "RAAN(deg)": 124.99654806090027,
        "Satellite Name": "Constellation 1 570",
        "Satellite Number": 570,
        "Semi-Major Axis(m)": 7083131.272910544,
        "Time(s)": 61
    },
    {
        "Altitude(m)": 708159.2993874793,
        "Argument of Periapsis(deg)": 0.003716776387215149,
        "Eccentricity": 0.0,
        "Inclination(deg)": 45.0,
        "Latitude(deg)": -20.178057828773944,
        "Longitude(deg)": 3.32863818163887,
        "Mean Anomaly(deg)": -28.963829304506294,
        "RAAN(deg)": 124.99649147173471,
        "Satellite Name": "Constellation 1 570",
        "Satellite Number": 570,
        "Semi-Major Axis(m)": 7083131.272910544,
        "Time(s)": 62
    },
    {
        "Altitude(m)": 708146.1529530409,
        "Argument of Periapsis(deg)": 0.003776724393460554,
        "Eccentricity": 0.0,
        "Inclination(deg)": 45.0,
        "Latitude(deg)": -20.137914497859747,
        "Longitude(deg)": 3.3730720858896515,
        "Mean Anomaly(deg)": -28.903128164256323,
        "RAAN(deg)": 124.99643488256912,
        "Satellite Name": "Constellation 1 570",
        "Satellite Number": 570,
        "Semi-Major Axis(m)": 7083131.272910544,
        "Time(s)": 63
    },
    {
        "Altitude(m)": 708133.0145216585,
        "Argument of Periapsis(deg)": 0.003836672399705959,
        "Eccentricity": 0.0,
        "Inclination(deg)": 45.0,
        "Latitude(deg)": -20.09775752800355,
        "Longitude(deg)": 3.41748132637974,
        "Mean Anomaly(deg)": -28.842427024006476,
        "RAAN(deg)": 124.99637829340357,
        "Satellite Name": "Constellation 1 570",
        "Satellite Number": 570,
        "Semi-Major Axis(m)": 7083131.272910544,
        "Time(s)": 64
    },
    {
        "Altitude(m)": 708119.8841360069,
        "Argument of Periapsis(deg)": 0.003896620405951365,
        "Eccentricity": 0.0,
        "Inclination(deg)": 45.0,
        "Latitude(deg)": -20.057586954981474,
        "Longitude(deg)": 3.461865960992306,
        "Mean Anomaly(deg)": -28.781725883756575,
        "RAAN(deg)": 124.996321704238,
        "Satellite Name": "Constellation 1 570",
        "Satellite Number": 570,
        "Semi-Major Axis(m)": 7083131.272910544,
        "Time(s)": 65
    },
    {
        "Altitude(m)": 708106.7618387192,
        "Argument of Periapsis(deg)": 0.003956568412196771,
        "Eccentricity": 0.0,
        "Inclination(deg)": 45.0,
        "Latitude(deg)": -20.017402814521706,
        "Longitude(deg)": 3.506226047583309,
        "Mean Anomaly(deg)": -28.72102474350665,
        "RAAN(deg)": 124.99626511507242,
        "Satellite Name": "Constellation 1 570",
        "Satellite Number": 570,
        "Semi-Major Axis(m)": 7083131.272910544,
        "Time(s)": 66
    },
    {
        "Altitude(m)": 708093.6476723878,
        "Argument of Periapsis(deg)": 0.004016516418442176,
        "Eccentricity": 0.0,
        "Inclination(deg)": 45.0,
        "Latitude(deg)": -19.977205142304808,
        "Longitude(deg)": 3.550561475884418,
        "Mean Anomaly(deg)": -28.660323603256803,
        "RAAN(deg)": 124.99620852590685,
        "Satellite Name": "Constellation 1 570",
        "Satellite Number": 570,
        "Semi-Major Axis(m)": 7083131.272910544,
        "Time(s)": 67
    },
    {
        "Altitude(m)": 708080.5416795446,
        "Argument of Periapsis(deg)": 0.004076464424687581,
        "Eccentricity": 0.0,
        "Inclination(deg)": 45.0,
        "Latitude(deg)": -19.936993973962487,
        "Longitude(deg)": 3.5948726398913893,
        "Mean Anomaly(deg)": -28.599622463006877,
        "RAAN(deg)": 124.99615193674128,
        "Satellite Name": "Constellation 1 570",
        "Satellite Number": 570,
        "Semi-Major Axis(m)": 7083131.272910544,
        "Time(s)": 68
    },
    {
        "Altitude(m)": 708067.443902695,
        "Argument of Periapsis(deg)": 0.004136412430932987,
        "Eccentricity": 0.0,
        "Inclination(deg)": 45.0,
        "Latitude(deg)": -19.896769345079758,
        "Longitude(deg)": 3.6391594292813356,
        "Mean Anomaly(deg)": -28.538921322756963,
        "RAAN(deg)": 124.9960953475757,
        "Satellite Name": "Constellation 1 570",
        "Satellite Number": 570,
        "Semi-Major Axis(m)": 7083131.272910544,
        "Time(s)": 69
    },
    {
        "Altitude(m)": 708054.3543842888,
        "Argument of Periapsis(deg)": 0.004196360437178394,
        "Eccentricity": 0.0,
        "Inclination(deg)": 45.0,
        "Latitude(deg)": -19.856531291193708,
        "Longitude(deg)": 3.6834219018011063,
        "Mean Anomaly(deg)": -28.478220182507066,
        "RAAN(deg)": 124.99603875841015,
        "Satellite Name": "Constellation 1 570",
        "Satellite Number": 570,
        "Semi-Major Axis(m)": 7083131.272910544,
        "Time(s)": 70
    },
    {
        "Altitude(m)": 708041.2731667255,
        "Argument of Periapsis(deg)": 0.004256308443423799,
        "Eccentricity": 0.0,
        "Inclination(deg)": 45.0,
        "Latitude(deg)": -19.8162798477939,
        "Longitude(deg)": 3.727660115170062,
        "Mean Anomaly(deg)": -28.417519042257144,
        "RAAN(deg)": 124.99598216924457,
        "Satellite Name": "Constellation 1 570",
        "Satellite Number": 570,
        "Semi-Major Axis(m)": 7083131.272910544,
        "Time(s)": 71
    },
    {
        "Altitude(m)": 708028.2002923732,
        "Argument of Periapsis(deg)": 0.004316256449669204,
        "Eccentricity": 0.0,
        "Inclination(deg)": 45.0,
        "Latitude(deg)": -19.77601505032261,
        "Longitude(deg)": 3.771874127079902,
        "Mean Anomaly(deg)": -28.35681790200729,
        "RAAN(deg)": 124.995925580079,
        "Satellite Name": "Constellation 1 570",
        "Satellite Number": 570,
        "Semi-Major Axis(m)": 7083131.272910544,
        "Time(s)": 72
    },
    {
        "Altitude(m)": 708015.1358035338,
        "Argument of Periapsis(deg)": 0.00437620445591461,
        "Eccentricity": 0.0,
        "Inclination(deg)": 45.0,
        "Latitude(deg)": -19.735736934174692,
        "Longitude(deg)": 3.8160639951949373,
        "Mean Anomaly(deg)": -28.296116761757343,
        "RAAN(deg)": 124.99586899091345,
        "Satellite Name": "Constellation 1 570",
        "Satellite Number": 570,
        "Semi-Major Axis(m)": 7083131.272910544,
        "Time(s)": 73
    },
    {
        "Altitude(m)": 708002.0797424763,
        "Argument of Periapsis(deg)": 0.004436152462160016,
        "Eccentricity": 0.0,
        "Inclination(deg)": 45.0,
        "Latitude(deg)": -19.695445534698443,
        "Longitude(deg)": 3.8602296090543238,
        "Mean Anomaly(deg)": -28.23541562150752,
        "RAAN(deg)": 124.99581240174786,
        "Satellite Name": "Constellation 1 570",
        "Satellite Number": 570,
        "Semi-Major Axis(m)": 7083131.272910544,
        "Time(s)": 74
    },
    {
        "Altitude(m)": 707989.0321514212,
        "Argument of Periapsis(deg)": 0.0044961004684054215,
        "Eccentricity": 0.0,
        "Inclination(deg)": 45.0,
        "Latitude(deg)": -19.65514088719387,
        "Longitude(deg)": 3.904371362461078,
        "Mean Anomaly(deg)": -28.17471448125757,
        "RAAN(deg)": 124.9957558125823,
        "Satellite Name": "Constellation 1 570",
        "Satellite Number": 570,
        "Semi-Major Axis(m)": 7083131.272910544,
        "Time(s)": 75
    }
]